STARLINK-5058           
1 55456U 23015H   25310.58730998  .00000323  00000+0  39006-4 0  9995
2 55456  43.0043 275.1145 0001139 263.8195  96.2518 15.02540905152239
STARLINK-5682           
1 55457U 23015J   25309.99123038  .00000809  00000+0  74939-4 0  9993
2 55457  43.0040 278.3843 0001230 272.8138  87.2563 15.02541308152144
STARLINK-5020           
1 55458U 23015K   25310.17734241  .00000460  00000+0  49102-4 0  9997
2 55458  43.0065 277.1992 0001024 271.9058  88.1667 15.02545394152173
STARLINK-5669           
1 55459U 23015L   25310.18179108  .00000915  00000+0  82795-4 0  9994
2 55459  43.0052 277.2339 0001522 271.8347  88.2321 15.02527424152171
STARLINK-5678           
1 55460U 23015M   25310.17846161  .00000111  00000+0  23335-4 0  9998
2 55460  43.0048 277.2077 0001628 262.4033  97.6624 15.02532293152172
STARLINK-5646           
1 55461U 23015N   25310.78341089  .00001207  00000+0  10441-3 0  9995
2 55461  43.0051 274.0076 0001305 272.2236  87.8456 15.02539710152262
STARLINK-5673           
1 55462U 23015P   25310.63270503  .00003205  00000+0  25214-3 0  9996
2 55462  43.0035 274.5953 0001568 290.0957  69.9717 15.02545620152249
STARLINK-5677           
1 55463U 23015Q   25310.63825125 -.00001398  00000+0 -88417-4 0  9991
2 55463  43.0028 274.6365 0001227 263.8065  96.2637 15.02535114152241
STARLINK-5676           
1 55464U 23015R   25310.62603661  .00005108  00000+0  39287-3 0  9991
2 55464  43.0091 274.5462 0001726 265.8291  94.2354 15.02545690152240
STARLINK-5674           
1 55465U 23015S   25310.62937021  .00000768  00000+0  71925-4 0  9995
2 55465  43.0048 274.5717 0001297 268.1905  91.8789 15.02538993152240
STARLINK-5628           
1 55466U 23015T   25310.61273593  .00001331  00000+0  11360-3 0  9995
2 55466  43.0040 274.4429 0001234 279.9877  80.0826 15.02536947152240
STARLINK-5679           
1 55467U 23015U   25310.63602707  .00001362  00000+0  11585-3 0  9994
2 55467  43.0050 274.6210 0001192 265.0645  95.0061 15.02542295152244
STARLINK-5672           
1 55468U 23015V   25310.22496027 -.00000461  00000+0 -19030-4 0  9991
2 55468  43.0050 276.6942 0001544 264.6013  95.4653 15.02530708152184
STARLINK-5681           
1 55469U 23015W   25310.62714848  .00001095  00000+0  96137-4 0  9995
2 55469  43.0055 274.5536 0001134 271.7266  88.3447 15.02539407152244
STARLINK-5708           
1 55470U 23015X   25310.75233742  .00000715  00000+0  68019-4 0  9996
2 55470  43.0036 273.7735 0001057 274.4364  85.6358 15.02538104152266
STARLINK-5711           
1 55471U 23015Y   25310.75011897  .00000454  00000+0  48703-4 0  9990
2 55471  43.0053 273.7541 0001456 263.0579  97.0097 15.02532937152261
STARLINK-5705           
1 55472U 23015Z   25309.61926314  .00000829  00000+0  76417-4 0  9992
2 55472  43.0048 267.7464 0001132 263.9511  96.1203 15.02531791152232
