[{"OBJECT_NAME":"STARLINK-5058","OBJECT_ID":"2023-015H","EPOCH":"2025-11-06T14:05:43.582272","MEAN_MOTION":15.02540905,"ECCENTRICITY":0.0001139,"INCLINATION":43.0043,"RA_OF_ASC_NODE":275.1145,"ARG_OF_PERICENTER":263.8195,"MEAN_ANOMALY":96.2518,"EPHEMERIS_TYPE":0,"CLASSIFICATION_TYPE":"U","NORAD_CAT_ID":55456,"ELEMENT_SET_NO":999,"REV_AT_EPOCH":15223,"BSTAR":3.9006e-5,"MEAN_MOTION_DOT":3.23e-6,"MEAN_MOTION_DDOT":0},{"OBJECT_NAME":"STARLINK-5682","OBJECT_ID":"2023-015J","EPOCH":"2025-11-05T23:47:22.304832","MEAN_MOTION":15.02541308,"ECCENTRICITY":0.00012301,"INCLINATION":43.004,"RA_OF_ASC_NODE":278.3843,"ARG_OF_PERICENTER":272.8138,"MEAN_ANOMALY":87.2563,"EPHEMERIS_TYPE":0,"CLASSIFICATION_TYPE":"U","NORAD_CAT_ID":55457,"ELEMENT_SET_NO":999,"REV_AT_EPOCH":15214,"BSTAR":7.4939115e-5,"MEAN_MOTION_DOT":8.09e-6,"MEAN_MOTION_DDOT":0},{"OBJECT_NAME":"STARLINK-5020","OBJECT_ID":"2023-015K","EPOCH":"2025-11-06T04:15:22.384224","MEAN_MOTION":15.02545394,"ECCENTRICITY":0.0001024,"INCLINATION":43.0065,"RA_OF_ASC_NODE":277.1992,"ARG_OF_PERICENTER":271.9058,"MEAN_ANOMALY":88.1667,"EPHEMERIS_TYPE":0,"CLASSIFICATION_TYPE":"U","NORAD_CAT_ID":55458,"ELEMENT_SET_NO":999,"REV_AT_EPOCH":15217,"BSTAR":4.9102e-5,"MEAN_MOTION_DOT":4.6e-6,"MEAN_MOTION_DDOT":0},{"OBJECT_NAME":"STARLINK-5669","OBJECT_ID":"2023-015L","EPOCH":"2025-11-06T04:21:46.749312","MEAN_MOTION":15.02527424,"ECCENTRICITY":0.0001522,"INCLINATION":43.0052,"RA_OF_ASC_NODE":277.2339,"ARG_OF_PERICENTER":271.8347,"MEAN_ANOMALY":88.2321,"EPHEMERIS_TYPE":0,"CLASSIFICATION_TYPE":"U","NORAD_CAT_ID":55459,"ELEMENT_SET_NO":999,"REV_AT_EPOCH":15217,"BSTAR":8.2795e-5,"MEAN_MOTION_DOT":9.15e-6,"MEAN_MOTION_DDOT":0},{"OBJECT_NAME":"STARLINK-5678","OBJECT_ID":"2023-015M","EPOCH":"2025-11-06T04:16:59.083104","MEAN_MOTION":15.02532293,"ECCENTRICITY":0.0001628,"INCLINATION":43.0048,"RA_OF_ASC_NODE":277.2077,"ARG_OF_PERICENTER":262.4033,"MEAN_ANOMALY":97.6624,"EPHEMERIS_TYPE":0,"CLASSIFICATION_TYPE":"U","NORAD_CAT_ID":55460,"ELEMENT_SET_NO":999,"REV_AT_EPOCH":15217,"BSTAR":2.3335e-5,"MEAN_MOTION_DOT":1.11e-6,"MEAN_MOTION_DDOT":0},{"OBJECT_NAME":"STARLINK-5646","OBJECT_ID":"2023-015N","EPOCH":"2025-11-06T18:48:06.700896","MEAN_MOTION":15.0253971,"ECCENTRICITY":0.0001305,"INCLINATION":43.0051,"RA_OF_ASC_NODE":274.0076,"ARG_OF_PERICENTER":272.2236,"MEAN_ANOMALY":87.8456,"EPHEMERIS_TYPE":0,"CLASSIFICATION_TYPE":"U","NORAD_CAT_ID":55461,"ELEMENT_SET_NO":999,"REV_AT_EPOCH":15226,"BSTAR":0.00010441,"MEAN_MOTION_DOT":1.207e-5,"MEAN_MOTION_DDOT":0},{"OBJECT_NAME":"STARLINK-5673","OBJECT_ID":"2023-015P","EPOCH":"2025-11-06T15:11:05.714592","MEAN_MOTION":15.0254562,"ECCENTRICITY":0.0001568,"INCLINATION":43.0035,"RA_OF_ASC_NODE":274.5953,"ARG_OF_PERICENTER":290.0957,"MEAN_ANOMALY":69.9717,"EPHEMERIS_TYPE":0,"CLASSIFICATION_TYPE":"U","NORAD_CAT_ID":55462,"ELEMENT_SET_NO":999,"REV_AT_EPOCH":15224,"BSTAR":0.00025214,"MEAN_MOTION_DOT":3.205e-5,"MEAN_MOTION_DDOT":0},{"OBJECT_NAME":"STARLINK-5677","OBJECT_ID":"2023-015Q","EPOCH":"2025-11-06T15:19:04.908000","MEAN_MOTION":15.02535114,"ECCENTRICITY":0.0001227,"INCLINATION":43.0028,"RA_OF_ASC_NODE":274.6365,"ARG_OF_PERICENTER":263.8065,"MEAN_ANOMALY":96.2637,"EPHEMERIS_TYPE":0,"CLASSIFICATION_TYPE":"U","NORAD_CAT_ID":55463,"ELEMENT_SET_NO":999,"REV_AT_EPOCH":15224,"BSTAR":-8.8417e-5,"MEAN_MOTION_DOT":-1.398e-5,"MEAN_MOTION_DDOT":0},{"OBJECT_NAME":"STARLINK-5676","OBJECT_ID":"2023-015R","EPOCH":"2025-11-06T15:01:29.563104","MEAN_MOTION":15.0254569,"ECCENTRICITY":0.0001726,"INCLINATION":43.0091,"RA_OF_ASC_NODE":274.5462,"ARG_OF_PERICENTER":265.8291,"MEAN_ANOMALY":94.2354,"EPHEMERIS_TYPE":0,"CLASSIFICATION_TYPE":"U","NORAD_CAT_ID":55464,"ELEMENT_SET_NO":999,"REV_AT_EPOCH":15224,"BSTAR":0.00039287,"MEAN_MOTION_DOT":5.108e-5,"MEAN_MOTION_DDOT":0},{"OBJECT_NAME":"STARLINK-5674","OBJECT_ID":"2023-015S","EPOCH":"2025-11-06T15:06:17.586144","MEAN_MOTION":15.02538993,"ECCENTRICITY":0.0001297,"INCLINATION":43.0048,"RA_OF_ASC_NODE":274.5717,"ARG_OF_PERICENTER":268.1905,"MEAN_ANOMALY":91.8789,"EPHEMERIS_TYPE":0,"CLASSIFICATION_TYPE":"U","NORAD_CAT_ID":55465,"ELEMENT_SET_NO":999,"REV_AT_EPOCH":15224,"BSTAR":7.1925e-5,"MEAN_MOTION_DOT":7.68e-6,"MEAN_MOTION_DDOT":0},{"OBJECT_NAME":"STARLINK-5628","OBJECT_ID":"2023-015T","EPOCH":"2025-11-06T14:42:20.384352","MEAN_MOTION":15.02536947,"ECCENTRICITY":0.0001234,"INCLINATION":43.004,"RA_OF_ASC_NODE":274.4429,"ARG_OF_PERICENTER":279.9877,"MEAN_ANOMALY":80.0826,"EPHEMERIS_TYPE":0,"CLASSIFICATION_TYPE":"U","NORAD_CAT_ID":55466,"ELEMENT_SET_NO":999,"REV_AT_EPOCH":15224,"BSTAR":0.0001136,"MEAN_MOTION_DOT":1.331e-5,"MEAN_MOTION_DDOT":0},{"OBJECT_NAME":"STARLINK-5679","OBJECT_ID":"2023-015U","EPOCH":"2025-11-06T15:15:52.738848","MEAN_MOTION":15.02542295,"ECCENTRICITY":0.0001192,"INCLINATION":43.005,"RA_OF_ASC_NODE":274.621,"ARG_OF_PERICENTER":265.0645,"MEAN_ANOMALY":95.0061,"EPHEMERIS_TYPE":0,"CLASSIFICATION_TYPE":"U","NORAD_CAT_ID":55467,"ELEMENT_SET_NO":999,"REV_AT_EPOCH":15224,"BSTAR":0.00011585,"MEAN_MOTION_DOT":1.362e-5,"MEAN_MOTION_DDOT":0},{"OBJECT_NAME":"STARLINK-5672","OBJECT_ID":"2023-015V","EPOCH":"2025-11-06T05:23:56.567328","MEAN_MOTION":15.02530708,"ECCENTRICITY":0.0001544,"INCLINATION":43.005,"RA_OF_ASC_NODE":276.6942,"ARG_OF_PERICENTER":264.6013,"MEAN_ANOMALY":95.4653,"EPHEMERIS_TYPE":0,"CLASSIFICATION_TYPE":"U","NORAD_CAT_ID":55468,"ELEMENT_SET_NO":999,"REV_AT_EPOCH":15218,"BSTAR":-1.903e-5,"MEAN_MOTION_DOT":-4.61e-6,"MEAN_MOTION_DDOT":0},{"OBJECT_NAME":"STARLINK-5681","OBJECT_ID":"2023-015W","EPOCH":"2025-11-06T15:03:05.628672","MEAN_MOTION":15.02539407,"ECCENTRICITY":0.0001134,"INCLINATION":43.0055,"RA_OF_ASC_NODE":274.5536,"ARG_OF_PERICENTER":271.7266,"MEAN_ANOMALY":88.3447,"EPHEMERIS_TYPE":0,"CLASSIFICATION_TYPE":"U","NORAD_CAT_ID":55469,"ELEMENT_SET_NO":999,"REV_AT_EPOCH":15224,"BSTAR":9.6137e-5,"MEAN_MOTION_DOT":1.095e-5,"MEAN_MOTION_DDOT":0},{"OBJECT_NAME":"STARLINK-5708","OBJECT_ID":"2023-015X","EPOCH":"2025-11-06T18:03:21.953088","MEAN_MOTION":15.02538104,"ECCENTRICITY":0.0001057,"INCLINATION":43.0036,"RA_OF_ASC_NODE":273.7735,"ARG_OF_PERICENTER":274.4364,"MEAN_ANOMALY":85.6358,"EPHEMERIS_TYPE":0,"CLASSIFICATION_TYPE":"U","NORAD_CAT_ID":55470,"ELEMENT_SET_NO":999,"REV_AT_EPOCH":15226,"BSTAR":6.8019e-5,"MEAN_MOTION_DOT":7.15e-6,"MEAN_MOTION_DDOT":0},{"OBJECT_NAME":"STARLINK-5711","OBJECT_ID":"2023-015Y","EPOCH":"2025-11-06T18:00:10.279008","MEAN_MOTION":15.02532937,"ECCENTRICITY":0.0001456,"INCLINATION":43.0053,"RA_OF_ASC_NODE":273.7541,"ARG_OF_PERICENTER":263.0579,"MEAN_ANOMALY":97.0097,"EPHEMERIS_TYPE":0,"CLASSIFICATION_TYPE":"U","NORAD_CAT_ID":55471,"ELEMENT_SET_NO":999,"REV_AT_EPOCH":15226,"BSTAR":4.8703e-5,"MEAN_MOTION_DOT":4.54e-6,"MEAN_MOTION_DDOT":0},{"OBJECT_NAME":"STARLINK-5705","OBJECT_ID":"2023-015Z","EPOCH":"2025-11-05T14:51:44.335296","MEAN_MOTION":15.02531791,"ECCENTRICITY":0.00011325,"INCLINATION":43.0048,"RA_OF_ASC_NODE":267.7464,"ARG_OF_PERICENTER":263.9511,"MEAN_ANOMALY":96.1203,"EPHEMERIS_TYPE":0,"CLASSIFICATION_TYPE":"U","NORAD_CAT_ID":55472,"ELEMENT_SET_NO":999,"REV_AT_EPOCH":15223,"BSTAR":7.6417073e-5,"MEAN_MOTION_DOT":8.29e-6,"MEAN_MOTION_DDOT":0}]
